{
  "type": "FeatureCollection",
  "features": [
    {
      "type": "Feature",
      "properties": {
        "norad_id": 41866,
        "name": "GOES 16",
        "group": "weather",
        "lat": -0.005644713104023866,
        "lon": -88.64841258222417,
        "alt_km": 35771.25541801519,
        "timestamp": "2025-12-27T18:38:03.121192+00:00",
        "meta_object_name": "GOES 16",
        "meta_object_id": "2016-071A",
        "meta_epoch": "2025-12-27T10:47:33.012096",
        "meta_mean_motion": 1.00272973,
        "meta_eccentricity": 0.0003429,
        "meta_inclination": 0.0745,
        "meta_ra_of_asc_node": 101.7179,
        "meta_arg_of_pericenter": 166.832,
        "meta_mean_anomaly": 244.8581,
        "meta_ephemeris_type": 0,
        "meta_classification_type": "U",
        "meta_norad_cat_id": 41866,
        "meta_element_set_no": 999,
        "meta_rev_at_epoch": 3338,
        "meta_bstar": 0,
        "meta_mean_motion_dot": -6.9e-07,
        "meta_mean_motion_ddot": 0,
        "tle_line1": "1 41866U 16071A   25361.44968764 -.00000069  00000+0  00000+0 0  9999",
        "tle_line2": "2 41866   0.0745 101.7179 0003429 166.8320 244.8581  1.00272973 33383"
      },
      "geometry": {
        "type": "Point",
        "coordinates": [
          -88.64841258222417,
          -0.005644713104023866
        ]
      }
    },
    {
      "type": "Feature",
      "properties": {
        "norad_id": 41882,
        "name": "FENGYUN 4A",
        "group": "weather",
        "lat": 1.6005679535606427,
        "lon": 139.54939144892927,
        "alt_km": 35777.863226182504,
        "timestamp": "2025-12-27T18:38:03.121204+00:00",
        "meta_object_name": "FENGYUN 4A",
        "meta_object_id": "2016-077A",
        "meta_epoch": "2025-12-27T12:27:29.162592",
        "meta_mean_motion": 1.00279782,
        "meta_eccentricity": 0.0005301,
        "meta_inclination": 1.8841,
        "meta_ra_of_asc_node": 82.2523,
        "meta_arg_of_pericenter": 132.0344,
        "meta_mean_anomaly": 192.4387,
        "meta_ephemeris_type": 0,
        "meta_classification_type": "U",
        "meta_norad_cat_id": 41882,
        "meta_element_set_no": 999,
        "meta_rev_at_epoch": 3320,
        "meta_bstar": 0,
        "meta_mean_motion_dot": -3.35e-06,
        "meta_mean_motion_ddot": 0,
        "tle_line1": "1 41882U 16077A   25361.51908753 -.00000335  00000+0  00000+0 0  9999",
        "tle_line2": "2 41882   1.8841  82.2523 0005301 132.0344 192.4387  1.00279782 33203"
      },
      "geometry": {
        "type": "Point",
        "coordinates": [
          139.54939144892927,
          1.6005679535606427
        ]
      }
    },
    {
      "type": "Feature",
      "properties": {
        "norad_id": 41884,
        "name": "CYGFM05",
        "group": "weather",
        "lat": 28.147349226295248,
        "lon": -1.1570239353404912,
        "alt_km": 418.11973227475846,
        "timestamp": "2025-12-27T18:38:03.121215+00:00",
        "meta_object_name": "CYGFM05",
        "meta_object_id": "2016-078A",
        "meta_epoch": "2025-12-27T06:00:55.835136",
        "meta_mean_motion": 15.48197192,
        "meta_eccentricity": 0.0010291,
        "meta_inclination": 34.9601,
        "meta_ra_of_asc_node": 312.3059,
        "meta_arg_of_pericenter": 307.7355,
        "meta_mean_anomaly": 52.2433,
        "meta_ephemeris_type": 0,
        "meta_classification_type": "U",
        "meta_norad_cat_id": 41884,
        "meta_element_set_no": 999,
        "meta_rev_at_epoch": 50201,
        "meta_bstar": 0.0004171,
        "meta_mean_motion_dot": 0.00022691,
        "meta_mean_motion_ddot": 0,
        "tle_line1": "1 41884U 16078A   25361.25064624  .00022691  00000+0  41710-3 0  9998",
        "tle_line2": "2 41884  34.9601 312.3059 0010291 307.7355  52.2433 15.48197192502010"
      },
      "geometry": {
        "type": "Point",
        "coordinates": [
          -1.1570239353404912,
          28.147349226295248
        ]
      }
    },
    {
      "type": "Feature",
      "properties": {
        "norad_id": 41885,
        "name": "CYGFM04",
        "group": "weather",
        "lat": 34.76777283166417,
        "lon": 7.202470334429924,
        "alt_km": 409.0782662367292,
        "timestamp": "2025-12-27T18:38:03.121226+00:00",
        "meta_object_name": "CYGFM04",
        "meta_object_id": "2016-078B",
        "meta_epoch": "2025-12-27T04:22:00.452352",
        "meta_mean_motion": 15.50997667,
        "meta_eccentricity": 0.0008778,
        "meta_inclination": 34.9347,
        "meta_ra_of_asc_node": 287.1088,
        "meta_arg_of_pericenter": 332.0064,
        "meta_mean_anomaly": 28.0186,
        "meta_ephemeris_type": 0,
        "meta_classification_type": "U",
        "meta_norad_cat_id": 41885,
        "meta_element_set_no": 999,
        "meta_rev_at_epoch": 50218,
        "meta_bstar": 0.00042228,
        "meta_mean_motion_dot": 0.00025367,
        "meta_mean_motion_ddot": 0,
        "tle_line1": "1 41885U 16078B   25361.18194968  .00025367  00000+0  42228-3 0  9994",
        "tle_line2": "2 41885  34.9347 287.1088 0008778 332.0064  28.0186 15.50997667502186"
      },
      "geometry": {
        "type": "Point",
        "coordinates": [
          7.202470334429924,
          34.76777283166417
        ]
      }
    },
    {
      "type": "Feature",
      "properties": {
        "norad_id": 41886,
        "name": "CYGFM02",
        "group": "weather",
        "lat": 3.3022779378108247,
        "lon": 96.59300175507794,
        "alt_km": 414.78970701869275,
        "timestamp": "2025-12-27T18:38:03.121236+00:00",
        "meta_object_name": "CYGFM02",
        "meta_object_id": "2016-078C",
        "meta_epoch": "2025-12-27T05:32:27.052224",
        "meta_mean_motion": 15.52425809,
        "meta_eccentricity": 0.0010344,
        "meta_inclination": 34.9434,
        "meta_ra_of_asc_node": 284.9233,
        "meta_arg_of_pericenter": 334.4073,
        "meta_mean_anomaly": 25.6137,
        "meta_ephemeris_type": 0,
        "meta_classification_type": "U",
        "meta_norad_cat_id": 41886,
        "meta_element_set_no": 999,
        "meta_rev_at_epoch": 50232,
        "meta_bstar": 0.00042876,
        "meta_mean_motion_dot": 0.0002714,
        "meta_mean_motion_ddot": 0,
        "tle_line1": "1 41886U 16078C   25361.23086866  .00027140  00000+0  42876-3 0  9998",
        "tle_line2": "2 41886  34.9434 284.9233 0010344 334.4073  25.6137 15.52425809502320"
      },
      "geometry": {
        "type": "Point",
        "coordinates": [
          96.59300175507794,
          3.3022779378108247
        ]
      }
    },
    {
      "type": "Feature",
      "properties": {
        "norad_id": 41887,
        "name": "CYGFM01",
        "group": "weather",
        "lat": 25.33165072479562,
        "lon": 88.42664238087141,
        "alt_km": 422.08245464946503,
        "timestamp": "2025-12-27T18:38:03.121246+00:00",
        "meta_object_name": "CYGFM01",
        "meta_object_id": "2016-078D",
        "meta_epoch": "2025-12-27T07:14:23.214912",
        "meta_mean_motion": 15.48795798,
        "meta_eccentricity": 0.001008,
        "meta_inclination": 34.9433,
        "meta_ra_of_asc_node": 314.2182,
        "meta_arg_of_pericenter": 300.4911,
        "meta_mean_anomaly": 59.4815,
        "meta_ephemeris_type": 0,
        "meta_classification_type": "U",
        "meta_norad_cat_id": 41887,
        "meta_element_set_no": 999,
        "meta_rev_at_epoch": 50196,
        "meta_bstar": 0.00041116,
        "meta_mean_motion_dot": 0.00022842,
        "meta_mean_motion_ddot": 0,
        "tle_line1": "1 41887U 16078D   25361.30165758  .00022842  00000+0  41116-3 0  9995",
        "tle_line2": "2 41887  34.9433 314.2182 0010080 300.4911  59.4815 15.48795798501960"
      },
      "geometry": {
        "type": "Point",
        "coordinates": [
          88.42664238087141,
          25.33165072479562
        ]
      }
    },
    {
      "type": "Feature",
      "properties": {
        "norad_id": 41888,
        "name": "CYGFM08",
        "group": "weather",
        "lat": -31.667684149481286,
        "lon": 175.9713983367004,
        "alt_km": 417.4662231561206,
        "timestamp": "2025-12-27T18:38:03.121258+00:00",
        "meta_object_name": "CYGFM08",
        "meta_object_id": "2016-078E",
        "meta_epoch": "2025-12-27T05:12:34.738272",
        "meta_mean_motion": 15.50037263,
        "meta_eccentricity": 0.0011159,
        "meta_inclination": 34.9459,
        "meta_ra_of_asc_node": 297.5919,
        "meta_arg_of_pericenter": 323.738,
        "meta_mean_anomaly": 36.2585,
        "meta_ephemeris_type": 0,
        "meta_classification_type": "U",
        "meta_norad_cat_id": 41888,
        "meta_element_set_no": 999,
        "meta_rev_at_epoch": 50218,
        "meta_bstar": 0.00042699,
        "meta_mean_motion_dot": 0.00024808,
        "meta_mean_motion_ddot": 0,
        "tle_line1": "1 41888U 16078E   25361.21706873  .00024808  00000+0  42699-3 0  9996",
        "tle_line2": "2 41888  34.9459 297.5919 0011159 323.7380  36.2585 15.50037263502187"
      },
      "geometry": {
        "type": "Point",
        "coordinates": [
          175.9713983367004,
          -31.667684149481286
        ]
      }
    }
  ]
}